[{"OBJECT_NAME":"STARLINK-5880","OBJECT_ID":"2023-094C","EPOCH":"2026-03-09T06:15:36.503424","MEAN_MOTION":15.02534794,"ECCENTRICITY":0.00012624,"INCLINATION":43.0042,"RA_OF_ASC_NODE":32.8163,"ARG_OF_PERICENTER":275.0069,"MEAN_ANOMALY":85.0629,"EPHEMERIS_TYPE":0,"CLASSIFICATION_TYPE":"U","NORAD_CAT_ID":57220,"ELEMENT_SET_NO":999,"REV_AT_EPOCH":14705,"BSTAR":2.3972433e-5,"MEAN_MOTION_DOT":1.2e-6,"MEAN_MOTION_DDOT":0},{"OBJECT_NAME":"FENGYUN 1C DEB","OBJECT_ID":"1999-025BNP","EPOCH":"2026-03-08T20:32:05.282880","MEAN_MOTION":15.24866573,"ECCENTRICITY":0.00982022,"INCLINATION":98.3915,"RA_OF_ASC_NODE":217.6412,"ARG_OF_PERICENTER":158.7529,"MEAN_ANOMALY":201.7829,"EPHEMERIS_TYPE":0,"CLASSIFICATION_TYPE":"U","NORAD_CAT_ID":31281,"ELEMENT_SET_NO":999,"REV_AT_EPOCH":1008,"BSTAR":0.0025465872,"MEAN_MOTION_DOT":0.00073171,"MEAN_MOTION_DDOT":0}]
